start=new Date('2022-12-06T00:00:00.000Z').valueOf();
sats=[{"SEMIMAJOR_AXIS":"6925.359","ARG_OF_PERICENTER":"52.1536","MEAN_ANOMALY":"307.9635","OBJECT_ID":"2020-062AF","BSTAR":"0.00007088400000","MEAN_MOTION":"15.06396719","OBJECT_NAME":"STARLINK-1657","PERIAPSIS":"545.828","MEAN_MOTION_DDOT":"0.0000000000000","REF_FRAME":"TEME","PERIOD":"95.592","ECCENTRICITY":"0.00020150","MEAN_ELEMENT_THEORY":"SGP4","MEAN_MOTION_DOT":"0.00000774","NORAD_CAT_ID":"46354","CENTER_NAME":"EARTH","CLASSIFICATION_TYPE":"U","RA_OF_ASC_NODE":"318.8389","TLE_LINE2":"2 46354  53.0560 318.8389 0002015  52.1536 307.9635 15.06396719124943","DECAY_DATE":null,"EPHEMERIS_TYPE":"0","INCLINATION":"53.0560","APOAPSIS":"548.619","EPOCH":"2022-12-05T16:00:45.169344","COUNTRY_CODE":"US","TLE_LINE1":"1 46354U 20062AF  22339.66718946  .00000774  00000-0  70884-4 0  9997","REV_AT_EPOCH":"12494","OBJECT_TYPE":"PAYLOAD","GP_ID":"219623873","LAUNCH_DATE":"2020-09-03","RCS_SIZE":"LARGE","FILE":"3682465","TIME_SYSTEM":"UTC","SITE":"AFETR","ELEMENT_SET_NO":"999"},{"CLASSIFICATION_TYPE":"U","CENTER_NAME":"EARTH","TLE_LINE2":"2 46355  53.0556 318.9616 0001598  66.5037 293.6120 15.06403991124944","RA_OF_ASC_NODE":"318.9616","ECCENTRICITY":"0.00015980","NORAD_CAT_ID":"46355","MEAN_ELEMENT_THEORY":"SGP4","MEAN_MOTION_DOT":"0.00000640","MEAN_MOTION":"15.06403991","BSTAR":"0.00006188800000","OBJECT_ID":"2020-062AG","PERIOD":"95.592","REF_FRAME":"TEME","MEAN_MOTION_DDOT":"0.0000000000000","PERIAPSIS":"546.095","OBJECT_NAME":"STARLINK-1661","SEMIMAJOR_AXIS":"6925.336","MEAN_ANOMALY":"293.6120","ARG_OF_PERICENTER":"66.5037","FILE":"3682465","SITE":"AFETR","ELEMENT_SET_NO":"999","TIME_SYSTEM":"UTC","GP_ID":"219624122","OBJECT_TYPE":"PAYLOAD","RCS_SIZE":"LARGE","LAUNCH_DATE":"2020-09-03","EPOCH":"2022-12-05T15:23:35.702016","TLE_LINE1":"1 46355U 20062AG  22339.64138544  .00000640  00000-0  61888-4 0  9992","REV_AT_EPOCH":"12494","COUNTRY_CODE":"US","INCLINATION":"53.0556","EPHEMERIS_TYPE":"0","DECAY_DATE":null,"APOAPSIS":"548.308"},{"RCS_SIZE":"LARGE","LAUNCH_DATE":"2020-09-03","GP_ID":"219622876","OBJECT_TYPE":"PAYLOAD","ELEMENT_SET_NO":"999","SITE":"AFETR","TIME_SYSTEM":"UTC","FILE":"3682465","APOAPSIS":"548.249","INCLINATION":"53.0568","EPHEMERIS_TYPE":"0","DECAY_DATE":null,"COUNTRY_CODE":"US","TLE_LINE1":"1 46356U 20062AH  22339.65150177  .00003795  00000-0  27350-3 0  9999","REV_AT_EPOCH":"12494","EPOCH":"2022-12-05T15:38:09.752928","NORAD_CAT_ID":"46356","MEAN_MOTION_DOT":"0.00003795","MEAN_ELEMENT_THEORY":"SGP4","ECCENTRICITY":"0.00015130","TLE_LINE2":"2 46356  53.0568 318.9087 0001513  75.0931 285.0225 15.06403954124945","RA_OF_ASC_NODE":"318.9087","CLASSIFICATION_TYPE":"U","CENTER_NAME":"EARTH","MEAN_ANOMALY":"285.0225","ARG_OF_PERICENTER":"75.0931","SEMIMAJOR_AXIS":"6925.336","PERIOD":"95.592","REF_FRAME":"TEME","MEAN_MOTION_DDOT":"0.0000000000000","OBJECT_NAME":"STARLINK-1665","PERIAPSIS":"546.154","MEAN_MOTION":"15.06403954","BSTAR":"0.00027350000000","OBJECT_ID":"2020-062AH"},{"GP_ID":"219599157","OBJECT_TYPE":"PAYLOAD","LAUNCH_DATE":"2020-09-03","RCS_SIZE":"LARGE","FILE":"3682181","ELEMENT_SET_NO":"999","SITE":"AFETR","TIME_SYSTEM":"UTC","DECAY_DATE":null,"INCLINATION":"53.0550","EPHEMERIS_TYPE":"0","APOAPSIS":"548.095","EPOCH":"2022-12-05T14:01:20.762112","TLE_LINE1":"1 46357U 20062AJ  22339.58426808  .00001891  00000-0  14582-3 0  9997","COUNTRY_CODE":"US","REV_AT_EPOCH":"12539","ECCENTRICITY":"0.00012940","NORAD_CAT_ID":"46357","MEAN_ELEMENT_THEORY":"SGP4","MEAN_MOTION_DOT":"0.00001891","CENTER_NAME":"EARTH","CLASSIFICATION_TYPE":"U","RA_OF_ASC_NODE":"299.2116","TLE_LINE2":"2 46357  53.0550 299.2116 0001294  97.6986 262.4150 15.06404840125398","SEMIMAJOR_AXIS":"6925.334","MEAN_ANOMALY":"262.4150","ARG_OF_PERICENTER":"97.6986","BSTAR":"0.00014582000000","MEAN_MOTION":"15.06404840","OBJECT_ID":"2020-062AJ","PERIOD":"95.592","PERIAPSIS":"546.303","OBJECT_NAME":"STARLINK-1666","REF_FRAME":"TEME","MEAN_MOTION_DDOT":"0.0000000000000"},{"RCS_SIZE":"LARGE","LAUNCH_DATE":"2020-09-03","GP_ID":"219593227","OBJECT_TYPE":"PAYLOAD","SITE":"AFETR","ELEMENT_SET_NO":"999","TIME_SYSTEM":"UTC","FILE":"3682099","APOAPSIS":"548.440","EPHEMERIS_TYPE":"0","INCLINATION":"53.0563","DECAY_DATE":null,"TLE_LINE1":"1 46358U 20062AK  22339.36493991  .00000418  00000-0  46965-4 0  9996","REV_AT_EPOCH":"12490","COUNTRY_CODE":"US","EPOCH":"2022-12-05T08:45:30.808224","NORAD_CAT_ID":"46358","MEAN_ELEMENT_THEORY":"SGP4","MEAN_MOTION_DOT":"0.00000418","ECCENTRICITY":"0.00017700","TLE_LINE2":"2 46358  53.0563 320.2040 0001770  58.3509 301.7653 15.06399797124903","RA_OF_ASC_NODE":"320.2040","CLASSIFICATION_TYPE":"U","CENTER_NAME":"EARTH","MEAN_ANOMALY":"301.7653","ARG_OF_PERICENTER":"58.3509","SEMIMAJOR_AXIS":"6925.349","PERIOD":"95.592","REF_FRAME":"TEME","MEAN_MOTION_DDOT":"0.0000000000000","OBJECT_NAME":"STARLINK-1690","PERIAPSIS":"545.988","MEAN_MOTION":"15.06399797","BSTAR":"0.00004696500000","OBJECT_ID":"2020-062AK"},{"ARG_OF_PERICENTER":"49.7997","MEAN_ANOMALY":"310.3165","SEMIMAJOR_AXIS":"6925.331","REF_FRAME":"TEME","MEAN_MOTION_DDOT":"0.0000000000000","PERIAPSIS":"545.826","OBJECT_NAME":"STARLINK-1707","PERIOD":"95.592","OBJECT_ID":"2020-062AL","MEAN_MOTION":"15.06405629","BSTAR":"0.00020568000000","MEAN_ELEMENT_THEORY":"SGP4","MEAN_MOTION_DOT":"0.00002784","NORAD_CAT_ID":"46359","ECCENTRICITY":"0.00019790","TLE_LINE2":"2 46359  53.0548 273.2072 0001979  49.7997 310.3165 15.06405629125597","RA_OF_ASC_NODE":"273.2072","CLASSIFICATION_TYPE":"U","CENTER_NAME":"EARTH","APOAPSIS":"548.567","EPHEMERIS_TYPE":"0","INCLINATION":"53.0548","DECAY_DATE":null,"COUNTRY_CODE":"US","TLE_LINE1":"1 46359U 20062AL  22339.80955738  .00002784  00000-0  20568-3 0  9996","REV_AT_EPOCH":"12559","EPOCH":"2022-12-05T19:25:45.757632","RCS_SIZE":"LARGE","LAUNCH_DATE":"2020-09-03","OBJECT_TYPE":"PAYLOAD","GP_ID":"219624622","TIME_SYSTEM":"UTC","SITE":"AFETR","ELEMENT_SET_NO":"999","FILE":"3682465"},{"ARG_OF_PERICENTER":"42.7534","MEAN_ANOMALY":"317.3620","SEMIMAJOR_AXIS":"6925.316","OBJECT_NAME":"STARLINK-1713","PERIAPSIS":"545.706","MEAN_MOTION_DDOT":"0.0000000000000","REF_FRAME":"TEME","PERIOD":"95.591","OBJECT_ID":"2020-062AM","BSTAR":"0.00010833000000","MEAN_MOTION":"15.06410603","MEAN_ELEMENT_THEORY":"SGP4","MEAN_MOTION_DOT":"0.00001333","NORAD_CAT_ID":"46360","ECCENTRICITY":"0.00021300","RA_OF_ASC_NODE":"273.1059","TLE_LINE2":"2 46360  53.0554 273.1059 0002130  42.7534 317.3620 15.06410603125603","CENTER_NAME":"EARTH","CLASSIFICATION_TYPE":"U","APOAPSIS":"548.656","DECAY_DATE":null,"INCLINATION":"53.0554","EPHEMERIS_TYPE":"0","TLE_LINE1":"1 46360U 20062AM  22339.83166436  .00001333  00000-0  10833-3 0  9993","COUNTRY_CODE":"US","REV_AT_EPOCH":"12560","EPOCH":"2022-12-05T19:57:35.800704","LAUNCH_DATE":"2020-09-03","RCS_SIZE":"LARGE","OBJECT_TYPE":"PAYLOAD","GP_ID":"219623376","TIME_SYSTEM":"UTC","SITE":"AFETR","ELEMENT_SET_NO":"999","FILE":"3682465"},{"TLE_LINE2":"2 46361  53.0564 274.4100 0001624  69.3177 290.7986 15.06405589125551","RA_OF_ASC_NODE":"274.4100","CLASSIFICATION_TYPE":"U","CENTER_NAME":"EARTH","MEAN_MOTION_DOT":"-0.00000078","MEAN_ELEMENT_THEORY":"SGP4","NORAD_CAT_ID":"46361","ECCENTRICITY":"0.00016240","MEAN_MOTION_DDOT":"0.0000000000000","REF_FRAME":"TEME","OBJECT_NAME":"STARLINK-1722","PERIAPSIS":"546.072","PERIOD":"95.592","OBJECT_ID":"2020-062AN","MEAN_MOTION":"15.06405589","BSTAR":"0.00001369000000","ARG_OF_PERICENTER":"69.3177","MEAN_ANOMALY":"290.7986","SEMIMAJOR_AXIS":"6925.331","TIME_SYSTEM":"UTC","SITE":"AFETR","ELEMENT_SET_NO":"999","FILE":"3682099","RCS_SIZE":"LARGE","LAUNCH_DATE":"2020-09-03","OBJECT_TYPE":"PAYLOAD","GP_ID":"219593484","REV_AT_EPOCH":"12555","TLE_LINE1":"1 46361U 20062AN  22339.53585390 -.00000078  00000-0  13690-4 0  9996","COUNTRY_CODE":"US","EPOCH":"2022-12-05T12:51:37.776960","APOAPSIS":"548.321","EPHEMERIS_TYPE":"0","INCLINATION":"53.0564","DECAY_DATE":null},{"APOAPSIS":"548.647","EPHEMERIS_TYPE":"0","INCLINATION":"53.0545","DECAY_DATE":null,"COUNTRY_CODE":"US","TLE_LINE1":"1 46362U 20062AP  22339.51467707  .00003864  00000-0  27808-3 0  9996","REV_AT_EPOCH":"12555","EPOCH":"2022-12-05T12:21:08.098848","RCS_SIZE":"LARGE","LAUNCH_DATE":"2020-09-03","GP_ID":"219593727","OBJECT_TYPE":"PAYLOAD","ELEMENT_SET_NO":"999","SITE":"AFETR","TIME_SYSTEM":"UTC","FILE":"3682099","MEAN_ANOMALY":"307.8035","ARG_OF_PERICENTER":"52.3145","SEMIMAJOR_AXIS":"6925.321","PERIOD":"95.592","MEAN_MOTION_DDOT":"0.0000000000000","REF_FRAME":"TEME","OBJECT_NAME":"STARLINK-1726","PERIAPSIS":"545.726","MEAN_MOTION":"15.06408904","BSTAR":"0.00027808000000","OBJECT_ID":"2020-062AP","NORAD_CAT_ID":"46362","MEAN_ELEMENT_THEORY":"SGP4","MEAN_MOTION_DOT":"0.00003864","ECCENTRICITY":"0.00021090","TLE_LINE2":"2 46362  53.0545 274.5320 0002109  52.3145 307.8035 15.06408904125551","RA_OF_ASC_NODE":"274.5320","CLASSIFICATION_TYPE":"U","CENTER_NAME":"EARTH"},{"TIME_SYSTEM":"UTC","ELEMENT_SET_NO":"999","SITE":"AFETR","FILE":"3682208","LAUNCH_DATE":"2020-09-03","RCS_SIZE":"LARGE","OBJECT_TYPE":"PAYLOAD","GP_ID":"219599878","TLE_LINE1":"1 46363U 20062AQ  22339.91668981 -.00050429  00000-0 -33869-2 0  9992","REV_AT_EPOCH":"12577","COUNTRY_CODE":"US","EPOCH":"2022-12-05T22:00:01.999584","APOAPSIS":"548.245","DECAY_DATE":null,"EPHEMERIS_TYPE":"0","INCLINATION":"53.0549","RA_OF_ASC_NODE":"272.6991","TLE_LINE2":"2 46363  53.0549 272.6991 0001667  61.7559   4.7923 15.06440147125778","CENTER_NAME":"EARTH","CLASSIFICATION_TYPE":"U","MEAN_MOTION_DOT":"-0.00050429","MEAN_ELEMENT_THEORY":"SGP4","NORAD_CAT_ID":"46363","ECCENTRICITY":"0.00016670","OBJECT_NAME":"STARLINK-1739","PERIAPSIS":"545.936","MEAN_MOTION_DDOT":"0.0000000000000","REF_FRAME":"TEME","PERIOD":"95.590","OBJECT_ID":"2020-062AQ","BSTAR":"-0.00338690000000","MEAN_MOTION":"15.06440147","ARG_OF_PERICENTER":"61.7559","MEAN_ANOMALY":"4.7923","SEMIMAJOR_AXIS":"6925.226"}];
